{"type":"FeatureCollection","features":[{"type":"Feature","geometry":{"type":"Point","coordinates":[-58.954008375,-28.91050235]},"properties":{"name":"GOBERNADOR JUAN E. MARTINEZ"}},{"type":"Feature","geometry":{"type":"Point","coordinates":[-58.482399023333336,-28.40784001]},"properties":{"name":"MANANTIALES"}},{"type":"Feature","geometry":{"type":"Point","coordinates":[-57.41935974999999,-29.871650646666666]},"properties":{"name":"BONPLAND"}},{"type":"Feature","geometry":{"type":"Point","coordinates":[-58.39010865,-27.366887050000003]},"properties":{"name":"ENSENADA GRANDE"}},{"type":"Feature","geometry":{"type":"Point","coordinates":[-58.98736475,-28.4884303]},"properties":{"name":"LOMAS NORTE"}},{"type":"Feature","geometry":{"type":"Point","coordinates":[-57.9230424,-27.85907825]},"properties":{"name":"PALMAR GRANDE (RURAL)"}},{"type":"Feature","geometry":{"type":"Point","coordinates":[-58.58217905,-28.3271485]},"properties":{"name":"ANGUA"}},{"type":"Feature","geometry":{"type":"Point","coordinates":[-58.5448047,-27.39237975]},"properties":{"name":"ENSENADITA"}},{"type":"Feature","geometry":{"type":"Point","coordinates":[-57.2807528,-28.5849008]},"properties":{"name":"SANTA ROSA"}},{"type":"Feature","geometry":{"type":"Point","coordinates":[-58.93846796666667,-28.727108]},"properties":{"name":"SANTO DOMINGO"}},{"type":"Feature","geometry":{"type":"Point","coordinates":[-59.26843505,-30.3175224]},"properties":{"name":"PUESTO LAS CUCHILLAS"}},{"type":"Feature","geometry":{"type":"Point","coordinates":[-57.758804350000005,-30.0207453]},"properties":{"name":"COLONIA LIBERTAD"}},{"type":"Feature","geometry":{"type":"Point","coordinates":[-58.603998649999994,-27.792213]},"properties":{"name":"ARROYO SOLIS"}},{"type":"Feature","geometry":{"type":"Point","coordinates":[-58.99687101,-29.215838230000003]},"properties":{"name":"COLONIA CAROLINA"}},{"type":"Feature","geometry":{"type":"Point","coordinates":[-58.616550450000005,-29.428898349999997]},"properties":{"name":"PERUGORRIA (RURAL)"}},{"type":"Feature","geometry":{"type":"Point","coordinates":[-58.8371861,-28.5635409]},"properties":{"name":"PARAJE JUAN DIAZ"}},{"type":"Feature","geometry":{"type":"Point","coordinates":[-58.4252211,-27.8424795]},"properties":{"name":"EL POLLO"}},{"type":"Feature","geometry":{"type":"Point","coordinates":[-57.085837585,-29.035079055]},"properties":{"name":"LA CRUZ"}},{"type":"Feature","geometry":{"type":"Point","coordinates":[-57.778895500000004,-30.26395515]},"properties":{"name":"PASO VALLEJOS"}},{"type":"Feature","geometry":{"type":"Point","coordinates":[-59.3905687,-29.5081687]},"properties":{"name":"SAN GREGORIO"}},{"type":"Feature","geometry":{"type":"Point","coordinates":[-58.80154089,-30.100589915]},"properties":{"name":"ARROYO HORQUETA"}},{"type":"Feature","geometry":{"type":"Point","coordinates":[-57.17934015,-27.6559646]},"properties":{"name":"SANTOS LUGARES"}},{"type":"Feature","geometry":{"type":"Point","coordinates":[-57.94528365,-29.13518415]},"properties":{"name":"CHACRAS"}},{"type":"Feature","geometry":{"type":"Point","coordinates":[-58.384765,-27.98796145]},"properties":{"name":"SAN LORENCITO"}},{"type":"Feature","geometry":{"type":"Point","coordinates":[-56.455105149999994,-27.683017399999997]},"properties":{"name":"PARAJE BUENA VISTA"}},{"type":"Feature","geometry":{"type":"Point","coordinates":[-56.29688825,-27.99019445]},"properties":{"name":"GOBERNADOR VIRASORO"}},{"type":"Feature","geometry":{"type":"Point","coordinates":[-58.663913300000004,-27.856509799999998]},"properties":{"name":"SAN JUANCITO"}},{"type":"Feature","geometry":{"type":"Point","coordinates":[-59.081314934999995,-28.84892463]},"properties":{"name":"COLONIA PROGRESO"}},{"type":"Feature","geometry":{"type":"Point","coordinates":[-59.2819979,-29.59861095]},"properties":{"name":"LA MARTA"}},{"type":"Feature","geometry":{"type":"Point","coordinates":[-59.03456164,-30.18360716]},"properties":{"name":"CAÑADITAS"}},{"type":"Feature","geometry":{"type":"Point","coordinates":[-59.36649265,-30.26060425]},"properties":{"name":"CORONEL ABRAHAM SCHWEIZER"}},{"type":"Feature","geometry":{"type":"Point","coordinates":[-58.51317555,-29.3963336]},"properties":{"name":"PERUGORRIA"}},{"type":"Feature","geometry":{"type":"Point","coordinates":[-56.824467049999996,-29.262282]},"properties":{"name":"COSTA GUAVIRAVI"}},{"type":"Feature","geometry":{"type":"Point","coordinates":[-59.246032595,-29.415506985]},"properties":{"name":"GOYA"}},{"type":"Feature","geometry":{"type":"Point","coordinates":[-59.0445019,-29.880813066666665]},"properties":{"name":"MALEZAL"}},{"type":"Feature","geometry":{"type":"Point","coordinates":[-57.52296095,-28.75107945]},"properties":{"name":"LOMA ALTA"}},{"type":"Feature","geometry":{"type":"Point","coordinates":[-58.49327607,-27.78749124]},"properties":{"name":"COSTA DE EMPEDRADO"}},{"type":"Feature","geometry":{"type":"Point","coordinates":[-57.7725858,-27.7425683]},"properties":{"name":"PASO FLORENTIN"}},{"type":"Feature","geometry":{"type":"Point","coordinates":[-58.4325628,-27.3041177]},"properties":{"name":"PUERTO ARAZA"}},{"type":"Feature","geometry":{"type":"Point","coordinates":[-58.3144548,-29.0135386]},"properties":{"name":"PASO PUCHETA"}},{"type":"Feature","geometry":{"type":"Point","coordinates":[-58.1897665,-29.6130481]},"properties":{"name":"BAIBIENE"}},{"type":"Feature","geometry":{"type":"Point","coordinates":[-58.2955531,-27.8315981]},"properties":{"name":"RAMONES"}},{"type":"Feature","geometry":{"type":"Point","coordinates":[-58.1830901,-27.4662269]},"properties":{"name":"COSTA GRANDE"}},{"type":"Feature","geometry":{"type":"Point","coordinates":[-58.252874,-27.811788]},"properties":{"name":"RINCON DE VENCES"}},{"type":"Feature","geometry":{"type":"Point","coordinates":[-57.9728275,-27.9845209]},"properties":{"name":"PUNTA GRANDE"}}]}