{"type":"FeatureCollection","features":[{"type":"Feature","properties":{},"geometry":{"type":"MultiPolygon","coordinates":[[[[-180,-85],[180,-85],[180,85],[-180,85],[-180,-85]],[[-58.707917,-27.366175],[-58.668787,-27.359092],[-58.616488,-27.318632],[-58.515722,-27.291032],[-58.497016,-27.27136],[-58.419658,-27.289453],[-58.362566,-27.284342],[-58.303726,-27.36228],[-58.360749,-27.28336],[-58.246744,-27.261516],[-58.191339,-27.280832],[-58.026496,-27.259025],[-57.970989,-27.274986],[-57.932307,-27.264108],[-57.891338,-27.267717],[-57.862416,-27.278595],[-57.824089,-27.330493],[-57.793517,-27.341484],[-57.70535,-27.325562],[-57.662824,-27.352718],[-57.609788,-27.395708],[-57.543506,-27.432967],[-57.507518,-27.444201],[-57.439005,-27.438282],[-57.387708,-27.421561],[-57.332864,-27.409433],[-57.309742,-27.420859],[-57.2321,-27.468042],[-57.254562,-27.473549],[-57.20741,-27.472863],[-57.120548,-27.493446],[-57.036472,-27.480595],[-56.974307,-27.495234],[-56.94700909415984,-27.564972313962038],[-56.952723,-27.535117],[-56.931914,-27.5666],[-56.853279,-27.605231],[-56.794062,-27.586856],[-56.737386,-27.603732],[-56.685997,-27.576944],[-56.677355,-27.560018],[-56.717054,-27.496937],[-56.718782,-27.464558],[-56.691029,-27.454341],[-56.649602,-27.460797],[-56.60355,-27.431417],[-56.556735,-27.456781],[-56.487046,-27.563677],[-56.42438,-27.602915],[-56.388842,-27.606019],[-56.356158,-27.58589],[-56.338367,-27.52403],[-56.293688,-27.494141],[-56.284131,-27.45978],[-56.294958,-27.422979],[-56.284233,-27.408492],[-56.237571,-27.402393],[-56.151922,-27.328739],[-56.075218,-27.307035],[-56.032419,-27.316387],[-56.024622,-27.338424],[-56.039906,-27.349216],[-56.028888,-27.382855],[-56.043216,-27.404992],[-56.036937,-27.415187],[-56.055421,-27.420687],[-56.054503,-27.451213],[-56.026635,-27.507277],[-55.9789,-27.5402],[-55.825537,-27.791656],[-55.846303,-27.832436],[-55.827123,-27.854597],[-55.835985,-27.889767],[-55.813082,-27.931874],[-55.87511155565355,-28.007933703858622],[-55.820744,-27.949938],[-55.809926,-27.954118],[-55.776405,-28.008676],[-55.749427,-28.0271],[-55.758025,-28.06081],[-55.716718,-28.061268],[-55.712579,-28.088184],[-55.676584,-28.10056],[-55.620259,-28.14575],[-55.629192,-28.173768],[-55.691622,-28.217213],[-55.782542,-28.253937],[-55.772689,-28.273936],[-55.732866,-28.285822],[-55.669942,-28.330763],[-55.696331,-28.42316],[-55.7175,-28.422158],[-55.732162,-28.384348],[-55.75745,-28.368588],[-55.878303,-28.361162],[-55.90303,-28.408104],[-55.882362,-28.477707],[-56.008646,-28.505999],[-56.025668,-28.535963],[-56.002271,-28.578489],[-56.007602,-28.604952],[-56.118573,-28.681681],[-56.185516,-28.770001],[-56.259155,-28.77832],[-56.297021,-28.802389],[-56.30629,-28.79283],[-56.297827,-28.88939],[-56.332411,-28.931343],[-56.386554,-28.952725],[-56.409915,-28.977648],[-56.415482,-29.000697],[-56.398771,-29.025807],[-56.419525,-29.078981],[-56.578546,-29.116609],[-56.64541,-29.199299],[-56.649584,-29.272415],[-56.703944,-29.362244],[-56.767462,-29.382561],[-56.778856,-29.436448],[-56.838651,-29.498216],[-56.899923,-29.533387],[-56.969577,-29.605023],[-56.968237,-29.639106],[-57.00587,-29.656121],[-57.030182,-29.691759],[-57.11022,-29.756998],[-57.169896,-29.781164],[-57.229949,-29.779164],[-57.289465,-29.825349],[-57.327833,-29.883264],[-57.326044,-29.965013],[-57.342929,-29.999996],[-57.408541,-30.032024],[-57.474243,-30.119768],[-57.54904,-30.166021],[-57.599893,-30.17921],[-57.628218,-30.174459],[-57.653552,-30.196275],[-57.61524,-30.254466],[-57.64292,-30.341905],[-57.889609,-30.510684],[-57.887304,-30.587569],[-57.846552,-30.620536],[-57.843369,-30.65955],[-57.808973,-30.695269],[-57.809509,-30.730192],[-57.843748,-30.721658],[-57.854835,-30.69465],[-57.894779,-30.669411],[-57.97485,-30.64734],[-57.980233,-30.629397],[-58.033321,-30.597927],[-58.037025,-30.5679],[-58.069126,-30.544908],[-58.057897,-30.493714],[-58.073797,-30.481774],[-58.079519,-30.455125],[-58.068476,-30.435529],[-58.07267973954056,-30.42515702526153],[-58.142282,-30.405238],[-58.19195,-30.335628],[-58.20692,-30.288616],[-58.262192,-30.255668],[-58.295901,-30.246],[-58.346454,-30.271261],[-58.404005,-30.249787],[-58.437047,-30.221675],[-58.451527,-30.224856],[-58.47016,-30.203043],[-58.496562,-30.207688],[-58.563668,-30.179188],[-58.5762420284404,-30.162314158658635],[-58.630015,-30.176859],[-58.647139,-30.163194],[-58.681665,-30.163581],[-58.681676,-30.175745],[-58.721058,-30.186399],[-58.754841,-30.215877],[-58.803753,-30.210834],[-58.831025,-30.231296],[-58.902123,-30.248578],[-58.96458,-30.218458],[-59.008653,-30.218522],[-59.064251,-30.230818],[-59.081459,-30.249074],[-59.075324,-30.256976],[-59.107792,-30.27338],[-59.126222,-30.1824],[-59.109857,-30.279624],[-59.136577,-30.286569],[-59.143579,-30.317126],[-59.171678,-30.318092],[-59.241691,-30.365739],[-59.273512,-30.352434],[-59.288267,-30.361884],[-59.298305,-30.346789],[-59.323732,-30.354244],[-59.348586,-30.324131],[-59.419647,-30.315736],[-59.44097,-30.329455],[-59.464028,-30.324323],[-59.464823,-30.33703],[-59.490212,-30.344331],[-59.557735,-30.33265],[-59.556837,-30.352302],[-59.565845,-30.347612],[-59.574664,-30.370974],[-59.57244,-30.408418],[-59.587769,-30.434822],[-59.609614,-30.425138],[-59.632171,-30.390643],[-59.63341,-30.362795],[-59.693453,-30.313123],[-59.710824,-30.270292],[-59.636584,-30.237456],[-59.612076,-30.10254],[-59.56948,-30.01901],[-59.6047,-29.902666],[-59.659665,-29.843179],[-59.617549,-29.77584],[-59.613979,-29.668765],[-59.590185,-29.569779],[-59.579953,-29.459848],[-59.604283,-29.394743],[-59.519788,-29.343189],[-59.500633,-29.243518],[-59.402065,-29.216896],[-59.346766,-29.11435],[-59.275303,-29.099567],[-59.234397,-29.071425],[-59.199715,-29.031545],[-59.209471,-28.968965],[-59.158075,-28.877356],[-59.160454,-28.794789],[-59.14264720363022,-28.77447016986367],[-59.142661,-28.774474],[-59.078601,-28.667487],[-59.105013,-28.633937],[-59.100722,-28.580087],[-59.048857,-28.493311],[-59.085977,-28.435966],[-59.076213,-28.365341],[-59.103458,-28.328816],[-59.109534,-28.229667],[-59.087678,-28.20177],[-59.087635,-28.171772],[-59.062413,-28.128109],[-58.952965,-28.137106],[-58.859734,-28.050318],[-58.857739,-28.011612],[-58.829262,-27.961873],[-58.844006,-27.880447],[-58.809708,-27.783407],[-58.824415,-27.669394],[-58.820315381951836,-27.671320295509943],[-58.882746,-27.608523],[-58.871019,-27.571271],[-58.881402,-27.497892],[-58.781012,-27.381778],[-58.707917,-27.366175]],[[-58.423271,-27.270154],[-58.420368,-27.279649],[-58.422009,-27.280627],[-58.431126,-27.268229],[-58.423271,-27.270154]],[[-58.611951,-27.316852],[-58.613093,-27.313283],[-58.607097,-27.312854],[-58.609024,-27.316138],[-58.611951,-27.316852]],[[-58.420597,-27.280978],[-58.413948,-27.281097],[-58.41312,-27.281593],[-58.418207,-27.283202],[-58.420597,-27.280978]],[[-58.437706,-27.267721],[-58.436534,-27.270747],[-58.441708,-27.267037],[-58.441058,-27.265638],[-58.437706,-27.267721]],[[-58.457404,-27.272953],[-58.4626,-27.271824],[-58.463321,-27.270848],[-58.45788,-27.2717],[-58.457404,-27.272953]],[[-57.82595,-27.302602],[-57.775227,-27.314999],[-57.768948,-27.321109],[-57.819451,-27.318697],[-57.82595,-27.302602]],[[-57.752547,-27.320163],[-57.74152,-27.323307],[-57.75212,-27.327925],[-57.782765,-27.32782],[-57.798088,-27.325021],[-57.794081,-27.32573],[-57.791364,-27.324007],[-57.787068,-27.325632],[-57.752547,-27.320163]],[[-58.223046,-27.256236],[-58.215346,-27.258624],[-58.204121,-27.25965],[-58.1967,-27.259137],[-58.190818,-27.262456],[-58.187877,-27.263104],[-58.184773,-27.263319],[-58.183694,-27.262942],[-58.183093,-27.261355],[-58.170484,-27.269217],[-58.211347,-27.263184],[-58.223046,-27.256236]],[[-58.303643,-27.262458],[-58.31784,-27.2725],[-58.335558,-27.273423],[-58.321649,-27.262574],[-58.303643,-27.262458]],[[-58.150203,-27.257994],[-58.138566,-27.265546],[-58.178002,-27.259267],[-58.156434,-27.255864],[-58.150203,-27.257994]],[[-58.224674,-27.2549],[-58.189397,-27.257697],[-58.183839,-27.261834],[-58.196808,-27.258867],[-58.214726,-27.258435],[-58.224674,-27.2549]],[[-57.82147,-27.31831],[-57.837282,-27.307302],[-57.838822,-27.297833],[-57.827021,-27.309075],[-57.82147,-27.31831]],[[-58.291622,-27.266431],[-58.301328,-27.271593],[-58.312138,-27.27169],[-58.300387,-27.265814],[-58.291622,-27.266431]],[[-57.814601,-27.320683],[-57.787826,-27.320612],[-57.78413,-27.322537],[-57.786963,-27.325336],[-57.790252,-27.323727],[-57.792176,-27.324077],[-57.79459,-27.325266],[-57.818483,-27.320124],[-57.814601,-27.320683]],[[-58.332672,-27.266267],[-58.337693,-27.27377],[-58.345599,-27.274808],[-58.341444,-27.269441],[-58.332672,-27.266267]],[[-58.232783,-27.259818],[-58.235813,-27.258693],[-58.244081,-27.253966],[-58.223997,-27.262112],[-58.232783,-27.259818]],[[-58.085893,-27.262054],[-58.093676,-27.266257],[-58.100041,-27.266305],[-58.090524,-27.259874],[-58.085893,-27.262054]],[[-57.817783,-27.324951],[-57.806309,-27.325546],[-57.802601,-27.327855],[-57.820477,-27.324566],[-57.817783,-27.324951]],[[-57.784024,-27.330417],[-57.772207,-27.329422],[-57.769098,-27.330169],[-57.779173,-27.333154],[-57.784833,-27.332221],[-57.786823,-27.328552],[-57.784024,-27.330417]],[[-58.197323,-27.269238],[-58.187682,-27.269887],[-58.184533,-27.272516],[-58.200732,-27.268945],[-58.197323,-27.269238]],[[-58.329729,-27.263728],[-58.335154,-27.264016],[-58.324073,-27.261362],[-58.324996,-27.262054],[-58.329729,-27.263728]],[[-58.293429,-27.256285],[-58.288235,-27.25622],[-58.286417,-27.256577],[-58.291384,-27.260115],[-58.299532,-27.255636],[-58.293429,-27.256285]],[[-58.165502,-27.274159],[-58.168732,-27.274042],[-58.169783,-27.2698],[-58.164996,-27.271396],[-58.165502,-27.274159]],[[-58.357731,-27.27492],[-58.36128,-27.274703],[-58.349075,-27.271803],[-58.351109,-27.274011],[-58.357731,-27.27492]],[[-58.192097,-27.27771],[-58.19411,-27.279431],[-58.19979,-27.277061],[-58.197778,-27.275957],[-58.192097,-27.27771]],[[-58.262908,-27.259689],[-58.263817,-27.261247],[-58.267713,-27.26129],[-58.265635,-27.259689],[-58.262908,-27.259689]],[[-56.914826,-27.42354],[-56.871761,-27.430442],[-56.764027,-27.502565],[-56.7294,-27.501961],[-56.737973,-27.550577],[-56.840421,-27.596181],[-56.87158,-27.58346],[-56.887897,-27.554936],[-56.903059,-27.537397],[-56.912073,-27.531478],[-56.93278,-27.526781],[-56.943637,-27.517852],[-56.952438,-27.514768],[-56.970105,-27.492732],[-57.032066,-27.480648],[-56.914826,-27.42354]],[[-56.705257,-27.563307],[-56.734235,-27.591428],[-56.783897,-27.582692],[-56.761369,-27.577493],[-56.756046,-27.57477],[-56.741997,-27.563506],[-56.740087,-27.563489],[-56.734045,-27.558731],[-56.716932,-27.519936],[-56.699665,-27.536523],[-56.705765,-27.557421],[-56.705257,-27.563307]],[[-56.956935,-27.516053],[-56.946156,-27.525062],[-56.925911,-27.535369],[-56.910732,-27.539054],[-56.894129,-27.551716],[-56.875988,-27.583573],[-56.900854,-27.569427],[-56.91961,-27.562565],[-56.932373,-27.535113],[-56.951989,-27.523312],[-56.956935,-27.516053]],[[-56.699595,-27.578159],[-56.706684,-27.580773],[-56.693316,-27.545063],[-56.686068,-27.560886],[-56.699595,-27.578159]],[[-56.35707,-27.517885],[-56.36473,-27.533633],[-56.3712,-27.538533],[-56.367441,-27.520406],[-56.35707,-27.517885]],[[-56.944729,-27.53584],[-56.930999,-27.548674],[-56.930017,-27.557105],[-56.941517,-27.546119],[-56.944729,-27.53584]],[[-56.928489,-27.530362],[-56.911989,-27.5329],[-56.907881,-27.538645],[-56.9246,-27.534686],[-56.928489,-27.530362]],[[-56.921087,-27.563079],[-56.902184,-27.57029],[-56.899074,-27.573137],[-56.9128,-27.570917],[-56.921087,-27.563079]],[[-56.938793,-27.524839],[-56.947813,-27.522284],[-56.954815,-27.514896],[-56.94276,-27.520435],[-56.938793,-27.524839]],[[-56.329329,-27.501225],[-56.343201,-27.508499],[-56.3443,-27.507991],[-56.320702,-27.495473],[-56.329329,-27.501225]],[[-56.77472,-27.576272],[-56.772225,-27.572203],[-56.75618,-27.569443],[-56.75872,-27.571362],[-56.764043,-27.572065],[-56.77472,-27.576272]],[[-56.754009,-27.57028],[-56.760082,-27.575118],[-56.772225,-27.576443],[-56.767165,-27.573407],[-56.754009,-27.57028]],[[-56.71627,-27.579284],[-56.718509,-27.585508],[-56.732994,-27.592678],[-56.722726,-27.58574],[-56.71627,-27.579284]],[[-56.731839,-27.532994],[-56.731179,-27.527566],[-56.726104,-27.519706],[-56.725842,-27.525369],[-56.731839,-27.532994]],[[-56.759079,-27.591047],[-56.753385,-27.592099],[-56.749424,-27.593461],[-56.749115,-27.593956],[-56.759079,-27.591047]],[[-56.939771,-27.535489],[-56.937078,-27.537876],[-56.933892,-27.544083],[-56.946785,-27.532692],[-56.939771,-27.535489]],[[-56.701363,-27.55255],[-56.70123,-27.55839],[-56.703737,-27.563565],[-56.705029,-27.558398],[-56.701363,-27.55255]],[[-56.730764,-27.542449],[-56.731921,-27.536602],[-56.729446,-27.533384],[-56.727606,-27.537425],[-56.730764,-27.542449]],[[-56.874278,-27.582497],[-56.863582,-27.58762],[-56.862235,-27.588762],[-56.871965,-27.586544],[-56.874278,-27.582497]],[[-56.861615,-27.592128],[-56.855197,-27.592904],[-56.855711,-27.594831],[-56.866247,-27.591876],[-56.861615,-27.592128]],[[-56.781625,-27.572992],[-56.788961,-27.576244],[-56.789467,-27.575666],[-56.784516,-27.571655],[-56.781625,-27.572992]],[[-56.710336,-27.58133],[-56.711821,-27.581949],[-56.706684,-27.575079],[-56.706065,-27.57774],[-56.710336,-27.58133]],[[-56.903637,-27.541573],[-56.905886,-27.540545],[-56.907363,-27.535663],[-56.903509,-27.537847],[-56.903637,-27.541573]],[[-56.765927,-27.569867],[-56.768081,-27.569071],[-56.761047,-27.567587],[-56.762446,-27.568803],[-56.765927,-27.569867]],[[-56.945215,-27.530746],[-56.93928,-27.532507],[-56.937885,-27.534432],[-56.945622,-27.531965],[-56.945215,-27.530746]],[[-56.739175,-27.562097],[-56.741974,-27.561672],[-56.736843,-27.558564],[-56.736126,-27.560066],[-56.739175,-27.562097]],[[-56.689817,-27.569795],[-56.690297,-27.572176],[-56.693674,-27.574418],[-56.690861,-27.570039],[-56.689817,-27.569795]],[[-56.93127,-27.527496],[-56.928909,-27.527833],[-56.927512,-27.528749],[-56.934065,-27.527544],[-56.93127,-27.527496]],[[-57.566611,-27.385118],[-57.502453,-27.403322],[-57.404192,-27.4166],[-57.4656,-27.431654],[-57.478021,-27.436616],[-57.484351,-27.435521],[-57.492187,-27.438701],[-57.593415,-27.392452],[-57.566611,-27.385118]],[[-57.448871,-27.432221],[-57.451574,-27.436582],[-57.472951,-27.438564],[-57.463196,-27.433926],[-57.448871,-27.432221]],[[-57.543052,-27.424431],[-57.539458,-27.427787],[-57.553169,-27.419738],[-57.551941,-27.419533],[-57.543052,-27.424431]],[[-57.444129,-27.429413],[-57.450031,-27.431948],[-57.454806,-27.430925],[-57.44205,-27.427514],[-57.444129,-27.429413]],[[-57.481254,-27.437477],[-57.479921,-27.438493],[-57.48784,-27.439153],[-57.484118,-27.436117],[-57.481254,-27.437477]],[[-57.541051,-27.429531],[-57.542869,-27.429697],[-57.548394,-27.426491],[-57.541232,-27.427582],[-57.541051,-27.429531]],[[-57.563128,-27.410461],[-57.557194,-27.414144],[-57.554601,-27.416941],[-57.56456,-27.410529],[-57.563128,-27.410461]],[[-57.610778,-27.383325],[-57.610586,-27.381637],[-57.60579,-27.381215],[-57.606365,-27.382251],[-57.610778,-27.383325]],[[-57.476975,-27.439656],[-57.47868,-27.439997],[-57.479294,-27.438837],[-57.475474,-27.438087],[-57.476975,-27.439656]],[[-57.221511,-27.464203],[-57.232337,-27.463443],[-57.239298,-27.456655],[-57.232975,-27.457467],[-57.221511,-27.464203]]],[[[-58.44973037174624,-27.40040919596311],[-58.451338,-27.400029],[-58.455436,-27.416787],[-58.44973037174624,-27.40040919596311]]],[[[-58.548492,-27.487389],[-58.58735252580187,-27.5169151450122],[-58.582327,-27.516875],[-58.548492,-27.487389]]],[[[-58.601586842792706,-27.517028851886227],[-58.626983,-27.513163],[-58.62842176851545,-27.5072576457089],[-58.63849297677331,-27.5173236662514],[-58.601586842792706,-27.517028851886227]]],[[[-58.707917,-27.366175],[-58.694978,-27.382996],[-58.663376,-27.422672],[-58.707917,-27.366175]]],[[[-57.793517,-27.341484],[-57.788236,-27.362584],[-57.78520148149876,-27.362124188387458],[-57.793517,-27.341484]]],[[[-59.513118248292656,-29.97732597133328],[-59.512583,-29.976679],[-59.5115938447986,-29.97242585348809],[-59.513118248292656,-29.97732597133328]]],[[[-59.476411368583676,-29.85933356512044],[-59.4148012109286,-29.815473608956115],[-59.474087,-29.851862],[-59.476411368583676,-29.85933356512044]]],[[[-59.41049263470801,-29.812829093992026],[-59.382051,-29.824443],[-59.409062,-29.811951],[-59.41049263470801,-29.812829093992026]]],[[[-59.312162804875236,-29.785711479287645],[-59.261703,-29.78327],[-59.312401,-29.784971],[-59.312162804875236,-29.785711479287645]]],[[[-59.056438,-29.580484],[-58.960247,-29.5327],[-58.959477467885534,-29.531396063829593],[-59.056438,-29.580484]]],[[[-58.92294762026692,-29.47390558328189],[-58.859653,-29.478859],[-58.910065,-29.468283],[-58.886032,-29.41404],[-58.92294762026692,-29.47390558328189]]],[[[-57.980827,-27.402863],[-58.118355,-27.402462],[-58.12051401981363,-27.403328339655687],[-57.980827,-27.402863]]],[[[-57.744267,-29.968199],[-57.693218,-30.024988],[-57.690190394960325,-30.02245904835436],[-57.744267,-29.968199]]],[[[-57.66545015974716,-30.007209068272733],[-57.659166721047384,-30.008725721523255],[-57.66170266034922,-30.00420994548742],[-57.66545015974716,-30.007209068272733]]],[[[-57.609131,-30.020803],[-57.57711205645517,-30.008535844698905],[-57.577888,-30.007904],[-57.609131,-30.020803]]],[[[-57.56985876678799,-30.014442141176726],[-57.56248680167029,-30.021846975582957],[-57.562229,-30.020655],[-57.56985876678799,-30.014442141176726]]],[[[-58.07719037056909,-30.386869438693015],[-58.073184538604416,-30.375170086129675],[-58.078029,-30.379907],[-58.07719037056909,-30.386869438693015]]],[[[-58.01697908454794,-29.838126974475497],[-57.98393944757496,-29.824914027130056],[-57.998379,-29.82234],[-58.01697908454794,-29.838126974475497]]],[[[-57.91935891067607,-29.836426299059152],[-57.91636918916329,-29.837222829422107],[-57.916595,-29.836919],[-57.91935891067607,-29.836426299059152]]],[[[-56.152083,-27.798644],[-56.21692907173204,-27.783782142954383],[-56.216808,-27.783921],[-56.152083,-27.798644]]],[[[-56.26606546913319,-27.82859486173225],[-56.266381,-27.82871],[-56.26083975238352,-27.862165332208587],[-56.260559,-27.861804],[-56.26606546913319,-27.82859486173225]]],[[[-56.26160331342963,-27.863148045857294],[-56.28089090442584,-27.882501985910725],[-56.276938,-27.882884],[-56.26160331342963,-27.863148045857294]]],[[[-56.467884,-27.939465],[-56.622433,-27.849346],[-56.62319803227686,-27.851276808203234],[-56.467884,-27.939465]]],[[[-56.779537,-28.080662],[-56.870825103350505,-28.22303075136589],[-56.831875,-28.176758],[-56.779537,-28.080662]]],[[[-56.87936873903905,-28.233180596834057],[-57.24280077321136,-28.51711917647818],[-57.215617,-28.499369],[-56.880928,-28.235033],[-56.87936873903905,-28.233180596834057]]],[[[-57.32168064695118,-28.568625333058122],[-57.34888828141524,-28.575174258104003],[-57.329388,-28.573658],[-57.32168064695118,-28.568625333058122]]],[[[-57.690651,-28.501316],[-57.639824,-28.464796],[-57.64003947203513,-28.46262212979469],[-57.690651,-28.501316]]],[[[-57.644190968418165,-28.420738206021642],[-57.644291,-28.419729],[-57.658833,-28.410524],[-57.644190968418165,-28.420738206021642]]],[[[-57.6052876955289,-28.387803722731775],[-57.517944,-28.345589],[-57.514304044590865,-28.34195585586672],[-57.589853,-28.37517],[-57.6052876955289,-28.387803722731775]]],[[[-57.096832,-27.665062],[-56.945395,-27.573406],[-56.94550786647824,-27.57281626957077],[-57.096832,-27.665062]]],[[[-55.885180407381156,-28.018674487327203],[-55.874653,-27.958235],[-55.888371,-28.022078],[-55.885180407381156,-28.018674487327203]]],[[[-58.668322,-27.612259],[-58.64848943059966,-27.527314970868677],[-58.653421,-27.532244],[-58.668322,-27.612259]]],[[[-58.668322,-27.612259],[-58.727235,-27.627213],[-58.687505,-27.624369],[-58.66433931334306,-27.610733645588816],[-58.668322,-27.612259]]],[[[-58.804003,-27.654654],[-58.81574585724979,-27.673467386973762],[-58.811686,-27.675375],[-58.804003,-27.654654]]],[[[-57.83252059020009,-27.484162286625523],[-57.831104,-27.485617],[-57.822384753934536,-27.489372704591762],[-57.83252059020009,-27.484162286625523]]],[[[-58.304054,-27.795339],[-58.242813,-27.83758],[-58.2343583392927,-27.836674472751675],[-58.304054,-27.795339]]],[[[-58.18794597331192,-27.831703526724414],[-58.16853,-27.829624],[-58.091198,-27.815393],[-58.03163268352523,-27.82486318903443],[-58.030186,-27.823702],[-58.104816,-27.811577],[-58.18794597331192,-27.831703526724414]]],[[[-58.194675,-27.901176],[-58.163782,-27.9016],[-58.16367813867291,-27.901308473668998],[-58.194675,-27.901176]]],[[[-58.194675,-27.901176],[-58.28741621771418,-27.950979549193345],[-58.267742,-27.945772],[-58.194675,-27.901176]]],[[[-58.297856808696864,-27.953743058875904],[-58.303917,-27.953382],[-58.3182558743512,-27.95914246735234],[-58.297856808696864,-27.953743058875904]]],[[[-58.596397,-27.647038],[-58.605835,-27.630169],[-58.62409198425226,-27.61784083736182],[-58.596397,-27.647038]]],[[[-58.63716678031607,-27.609011985339567],[-58.645374,-27.60347],[-58.647705761835894,-27.604363056247852],[-58.63716678031607,-27.609011985339567]]],[[[-58.69709534535469,-29.629359673518525],[-58.69683222481701,-29.629216122653578],[-58.696831,-29.62921],[-58.69709534535469,-29.629359673518525]]],[[[-58.694119,-29.834726],[-58.637058,-29.846283],[-58.63235219451424,-29.845626192040672],[-58.694119,-29.834726]]],[[[-58.62384681951859,-29.84443906307601],[-58.5846747683106,-29.838971664328977],[-58.591015,-29.833307],[-58.62384681951859,-29.84443906307601]]],[[[-58.510948013386454,-30.119881780693394],[-58.513412,-30.119685],[-58.539478,-30.15237],[-58.510948013386454,-30.119881780693394]]],[[[-58.87458,-29.389759],[-58.844955,-29.350393],[-58.8456815986998,-29.350200606178014],[-58.87458,-29.389759]]],[[[-58.80061647217927,-29.256897424328283],[-58.79975517235533,-29.254910267451],[-58.813267,-29.238363],[-58.80061647217927,-29.256897424328283]]],[[[-58.76226,-29.217735],[-58.786469,-29.230976],[-58.789603477535614,-29.23853383817437],[-58.76226,-29.217735]]],[[[-58.76226,-29.217735],[-58.75637020987158,-29.19558184706493],[-58.763031,-29.199879],[-58.76226,-29.217735]]],[[[-58.688943789270375,-29.10066232318289],[-58.673637,-29.103195],[-58.689049,-29.09952],[-58.688943789270375,-29.10066232318289]]],[[[-58.65704432584029,-29.080627580615218],[-58.647552,-29.079565],[-58.64344352995993,-29.064852469512918],[-58.645313,-29.064672],[-58.65704432584029,-29.080627580615218]]],[[[-58.70874,-28.951208],[-58.60009,-29.049177],[-58.60225846828858,-29.051277885407146],[-58.587185624140446,-29.049203864521804],[-58.600781,-29.050468],[-58.582127,-29.022694],[-58.601368,-29.04624],[-58.70874,-28.951208]]],[[[-58.70874,-28.951208],[-58.889828,-28.844698],[-58.890657722809735,-28.844537987604898],[-58.70874,-28.951208]]],[[[-58.56283875887913,-29.04694002595804],[-58.55943731150136,-29.04911644504936],[-58.55944,-29.046624],[-58.56283875887913,-29.04694002595804]]],[[[-58.34459400127659,-29.243048450979536],[-58.2908387395114,-29.270672832549568],[-58.307998,-29.252348],[-58.34459400127659,-29.243048450979536]]],[[[-58.193204,-29.40306],[-58.249111,-29.315235],[-58.2696734961516,-29.293275761195414],[-58.193204,-29.40306]]],[[[-58.193204,-29.40306],[-58.15067,-29.439418],[-58.150605890405444,-29.439420150099036],[-58.193204,-29.40306]]],[[[-57.646957,-29.717011],[-57.619759685243224,-29.74127303779107],[-57.61895439808461,-29.739961689000037],[-57.646957,-29.717011]]],[[[-57.61153232591017,-29.750027671742483],[-57.65644822600362,-29.761625015283684],[-57.609928,-29.751341],[-57.61153232591017,-29.750027671742483]]],[[[-57.69003699062078,-29.770297677783585],[-57.69096,-29.770536],[-57.678173,-29.819057],[-57.69003699062078,-29.770297677783585]]],[[[-57.777597,-27.971318],[-57.74618943173378,-27.94708670415732],[-57.78689716727798,-27.973598657701842],[-57.777597,-27.971318]]],[[[-57.72873771458026,-27.933622506046685],[-57.726868,-27.93218],[-57.593285,-27.766373],[-57.72873771458026,-27.933622506046685]]],[[[-58.38154120864932,-27.984566576189415],[-58.3990496205959,-27.991600366495355],[-58.390102,-27.990974],[-58.38154120864932,-27.984566576189415]]],[[[-58.438828,-27.994385],[-58.454519041768435,-27.980135700630978],[-58.334587,-28.118395],[-58.438828,-27.994385]]],[[[-58.45887924175379,-27.976176129570177],[-58.465427,-27.97023],[-58.49533193915207,-27.97674012146382],[-58.45887924175379,-27.976176129570177]]],[[[-58.556975354180466,-27.9901595140678],[-58.580823,-27.995351],[-58.59052504860922,-28.000620239433534],[-58.556975354180466,-27.9901595140678]]],[[[-58.59499452035114,-28.0030476357184],[-58.630909,-28.022553],[-58.638569,-28.039007],[-58.59499452035114,-28.0030476357184]]],[[[-58.835496832909705,-28.167018330056873],[-58.8363122973016,-28.16734009807273],[-58.835593,-28.16726],[-58.835496832909705,-28.167018330056873]]],[[[-58.86183786736016,-28.1701825235379],[-58.868155,-28.16511],[-58.87184907555849,-28.171297331671656],[-58.86183786736016,-28.1701825235379]]],[[[-58.936054179978676,-28.187255767157858],[-58.94774989633831,-28.18942564775965],[-58.943662,-28.192659],[-58.936054179978676,-28.187255767157858]]],[[[-58.97750035201131,-28.192760632259414],[-58.992298,-28.17289],[-58.984174,-28.19431],[-58.998206426520134,-28.20123835300832],[-58.97750035201131,-28.192760632259414]]],[[[-59.008881314947615,-28.182267612613288],[-59.01712,-28.172134],[-59.01530141459979,-28.177162454522357],[-59.008882,-28.182268],[-59.008881314947615,-28.182267612613288]]],[[[-59.030342,-28.190832],[-59.0432445426371,-28.221215979359982],[-59.040363,-28.222046],[-59.030342,-28.190832]]],[[[-59.045831521691746,-28.220470806971065],[-59.061775,-28.192995],[-59.055916,-28.217566],[-59.045831521691746,-28.220470806971065]]],[[[-57.684312764188675,-27.494997229851705],[-57.684235,-27.49383],[-57.68528310987391,-27.49394710812931],[-57.684312764188675,-27.494997229851705]]],[[[-57.71074138524843,-27.496791629566218],[-57.78571334640584,-27.505168448009016],[-57.776161,-27.509283],[-57.71074138524843,-27.496791629566218]]],[[[-56.51056826023183,-28.389467982773198],[-56.51151753794411,-28.39177404115073],[-56.510162,-28.390114],[-56.51056826023183,-28.389467982773198]]],[[[-56.52899483575397,-28.41317737677406],[-56.542347,-28.41696],[-56.542091045195434,-28.42921547197153],[-56.52899483575397,-28.41317737677406]]],[[[-56.551703292165676,-28.44183482757774],[-56.556503,-28.442547],[-56.596931,-28.492958],[-56.551703292165676,-28.44183482757774]]],[[[-56.592945,-28.537596],[-56.624283,-28.537325],[-56.612787,-28.542972],[-56.592945,-28.537596]]],[[[-57.476669,-29.182554],[-57.507731054832824,-29.170401779954336],[-57.509201,-29.17607],[-57.546752,-29.2126],[-57.508417,-29.17769],[-57.476669,-29.182554]]],[[[-57.50478785013919,-29.15905255944219],[-57.49108191689967,-29.14774984118268],[-57.502239,-29.149224],[-57.50478785013919,-29.15905255944219]]],[[[-57.48167876033811,-29.139995445512714],[-57.45814,-29.120584],[-57.481751,-29.132627],[-57.48167876033811,-29.139995445512714]]],[[[-57.271001,-28.957141],[-57.178683,-28.82659],[-57.178371658988695,-28.822335122394175],[-57.271001,-28.957141]]],[[[-56.78853420772769,-28.260393561564026],[-56.787385,-28.260709],[-56.640598,-28.262726],[-56.78853420772769,-28.260393561564026]]],[[[-57.603686532208286,-29.715099132526387],[-57.587873,-29.689348],[-57.606748,-29.70551],[-57.603686532208286,-29.715099132526387]]],[[[-57.578899,-29.334051],[-57.58214168597795,-29.322108614647654],[-57.58223,-29.322236],[-57.578899,-29.334051]]],[[[-59.211496,-29.094438],[-59.194763,-29.0912],[-59.19453698780405,-29.090573955985754],[-59.211496,-29.094438]]],[[[-59.1424740371155,-28.774422095524535],[-59.120735205319235,-28.77317658617486],[-59.122349,-28.768835],[-59.1424740371155,-28.774422095524535]]],[[[-59.041962,-28.811935],[-58.987865191042644,-28.82280785861865],[-58.98785853485217,-28.822798605606547],[-59.041962,-28.811935]]],[[[-58.73615,-28.58844],[-58.65318022576233,-28.50844685672499],[-58.713394,-28.44128],[-58.660099,-28.511686],[-58.73615,-28.58844]]],[[[-58.460434,-28.336666],[-58.431859,-28.306078],[-58.311817,-28.451077],[-58.430818,-28.301777],[-58.343430061091226,-28.23389531635542],[-58.448031,-28.312782],[-58.460434,-28.336666]]],[[[-58.490421,-28.646807],[-58.540123,-28.701162],[-58.543515809169264,-28.71441910473932],[-58.490421,-28.646807]]],[[[-58.54580147401765,-28.723350139991304],[-58.547489,-28.729944],[-58.5388050038567,-28.74194376055545],[-58.54580147401765,-28.723350139991304]]],[[[-58.47150279525226,-28.776748513118996],[-58.460419,-28.774662],[-58.422886,-28.740574],[-58.47150279525226,-28.776748513118996]]],[[[-58.307365,-28.832933],[-58.33177098801659,-28.855664767454282],[-58.304347,-28.837901],[-58.305588,-28.795643],[-58.307365,-28.832933]]],[[[-58.33803841288422,-28.86150225473532],[-58.342905,-28.866035],[-58.340234,-28.882304],[-58.33803841288422,-28.86150225473532]]],[[[-58.38088645456006,-28.915410870542058],[-58.394894,-28.913851],[-58.399820793991466,-28.923366917431547],[-58.381016,-28.916334],[-58.38088645456006,-28.915410870542058]]],[[[-58.40899938000267,-28.926799671737946],[-58.43051484942009,-28.92450736388452],[-58.420856,-28.931234],[-58.40899938000267,-28.926799671737946]]],[[[-58.43849707331986,-28.923656919296107],[-58.453129,-28.922098],[-58.451664,-28.93054],[-58.43849707331986,-28.923656919296107]]],[[[-58.133297,-28.120834],[-58.011813579587816,-28.030934203785886],[-58.015419,-28.031778],[-58.133297,-28.120834]]],[[[-59.0155940936398,-28.209823318382874],[-59.020349,-28.212171],[-59.02022933923123,-28.213300558666056],[-59.0155940936398,-28.209823318382874]]],[[[-59.01635799282504,-28.255435030938386],[-59.032555,-28.266871],[-59.01624,-28.25641],[-59.01635799282504,-28.255435030938386]]],[[[-57.903349,-27.27382],[-57.910579,-27.274395],[-57.912872,-27.276645],[-57.89824,-27.277518],[-57.862389,-27.294362],[-57.903349,-27.27382]]],[[[-57.906716,-27.290551],[-57.895896,-27.288114],[-57.894726,-27.280316],[-57.918386,-27.282459],[-57.906716,-27.290551]]],[[[-57.952914,-27.276011],[-57.939427,-27.277289],[-57.944874,-27.286171],[-57.923928,-27.275242],[-57.952914,-27.276011]]],[[[-57.942278,-27.268918],[-57.926743,-27.268808],[-57.921479,-27.266981],[-57.930069,-27.265336],[-57.942278,-27.268918]]],[[[-57.921877,-27.272629],[-57.917728,-27.276162],[-57.913537,-27.273902],[-57.917933,-27.274272],[-57.921877,-27.272629]]]]}}]}